[{"OBJECT_NAME":"STARLINK-3566","OBJECT_ID":"2022-022AE","EPOCH":"2026-03-09T06:31:53.223456","MEAN_MOTION":15.08840019,"ECCENTRICITY":0.00012496,"INCLINATION":53.2183,"RA_OF_ASC_NODE":10.7124,"ARG_OF_PERICENTER":87.2489,"MEAN_ANOMALY":272.8646,"EPHEMERIS_TYPE":0,"CLASSIFICATION_TYPE":"U","NORAD_CAT_ID":51880,"ELEMENT_SET_NO":999,"REV_AT_EPOCH":22305,"BSTAR":8.4231109e-5,"MEAN_MOTION_DOT":1.053e-5,"MEAN_MOTION_DDOT":0},{"OBJECT_NAME":"CZ-6A DEB","OBJECT_ID":"2024-140BZ","EPOCH":"2026-03-09T14:49:21.592992","MEAN_MOTION":14.79384468,"ECCENTRICITY":0.0146889,"INCLINATION":88.732,"RA_OF_ASC_NODE":260.453,"ARG_OF_PERICENTER":155.7611,"MEAN_ANOMALY":205.0618,"EPHEMERIS_TYPE":0,"CLASSIFICATION_TYPE":"U","NORAD_CAT_ID":60672,"ELEMENT_SET_NO":999,"REV_AT_EPOCH":8505,"BSTAR":0.0010732,"MEAN_MOTION_DOT":9.637e-5,"MEAN_MOTION_DDOT":0}]
